IRIDIUM 151             
1 43074U 17083E   26074.24948189 -.00000002  00000+0 -78128-5 0  9995
2 43074  86.4024   1.3158 0002101  85.4882 274.6554 14.34217469430675
IRIDIUM 134             
1 43075U 17083F   26074.21776794  .00000069  00000+0  17697-4 0  9998
2 43075  86.4029   1.3357 0002035  87.5845 272.5584 14.34218066430630
IRIDIUM 137             
1 43076U 17083G   26074.23045434 -.00000005  00000+0 -88515-5 0  9991
2 43076  86.4027   1.4214 0002388  92.2130 267.9339 14.34217541430704
IRIDIUM 141             
1 43077U 17083H   26074.22411068  .00000118  00000+0  35165-4 0  9996
2 43077  86.4025   1.2600 0002131  83.3166 276.8272 14.34218549430700
IRIDIUM 153             
1 43078U 17083J   26074.24605554  .00000185  00000+0  58934-4 0  9997
2 43078  86.4005 329.7634 0001975  77.9447 282.1971 14.34216971431816
IRIDIUM 131             
1 43079U 17083K   26074.28119365  .00000092  00000+0  25687-4 0  9998
2 43079  86.4031   1.4159 0002237  83.2314 276.9136 14.34218379430645
IRIDIUM 144             
1 43249U 18030A   26074.25240065  .00000046  00000+0  92701-5 0  9990
2 43249  86.4003 329.6922 0002090  88.5872 271.5564 14.34218007416671
IRIDIUM 149             
1 43250U 18030B   26074.25874370  .00000257  00000+0  84710-4 0  9998
2 43250  86.4002 329.6577 0002132  83.9421 276.2018 14.34218241416692
IRIDIUM 157             
1 43251U 18030C   26074.20800239  .00000085  00000+0  23459-4 0  9999
2 43251  86.4004 329.7299 0002098  84.4670 275.6766 14.34217935416669
IRIDIUM 140             
1 43252U 18030D   26074.22702992  .00000041  00000+0  76184-5 0  9995
2 43252  86.3999 329.7347 0002003  86.4598 273.6827 14.34217883416728
IRIDIUM 145             
1 43253U 18030E   26074.21434081  .00000245  00000+0  80482-4 0  9997
2 43253  86.4003 329.7123 0002089  95.1558 264.9876 14.34216916416650
IRIDIUM 146             
1 43254U 18030F   26074.19531667  .00000086  00000+0  23536-4 0  9993
2 43254  86.4004 329.7330 0002161  89.2018 270.9425 14.34218265416665
IRIDIUM 148             
1 43255U 18030G   26074.23337283  .00000023  00000+0  12815-5 0  9997
2 43255  86.3997 329.7584 0002024  85.4808 274.6619 14.34217693416705
IRIDIUM 142             
1 43256U 18030H   26074.20166008  .00000083  00000+0  22636-4 0  9997
2 43256  86.4001 329.6645 0002120  93.8953 266.2485 14.34217897416660
IRIDIUM 150             
1 43257U 18030J   26074.23971441  .00000205  00000+0  66082-4 0  9995
2 43257  86.4003 329.7617 0002049  86.1615 273.9815 14.34217679416696
IRIDIUM 143             
1 43258U 18030K   26074.22068786  .00000019  00000+0 -44809-6 0  9993
2 43258  86.4002 329.8582 0001967  90.9405 269.2016 14.34217615416620
IRIDIUM 161             
1 43478U 18047C   26074.22572419  .00000327  00000+0  91326-4 0  9993
2 43478  86.4490 127.7698 0002452  87.0910 273.0571 14.43277693411587
