[{"OBJECT_NAME":"IRIDIUM 151","OBJECT_ID":"2017-083E","EPOCH":"2026-03-15T05:59:15.235296","MEAN_MOTION":14.34217469,"ECCENTRICITY":0.00021014,"INCLINATION":86.4024,"RA_OF_ASC_NODE":1.3158,"ARG_OF_PERICENTER":85.4882,"MEAN_ANOMALY":274.6554,"EPHEMERIS_TYPE":0,"CLASSIFICATION_TYPE":"U","NORAD_CAT_ID":43074,"ELEMENT_SET_NO":999,"REV_AT_EPOCH":43067,"BSTAR":-7.812846e-6,"MEAN_MOTION_DOT":-2.0e-8,"MEAN_MOTION_DDOT":0},{"OBJECT_NAME":"IRIDIUM 134","OBJECT_ID":"2017-083F","EPOCH":"2026-03-15T05:13:35.150016","MEAN_MOTION":14.34218066,"ECCENTRICITY":0.00020357,"INCLINATION":86.4029,"RA_OF_ASC_NODE":1.3357,"ARG_OF_PERICENTER":87.5845,"MEAN_ANOMALY":272.5584,"EPHEMERIS_TYPE":0,"CLASSIFICATION_TYPE":"U","NORAD_CAT_ID":43075,"ELEMENT_SET_NO":999,"REV_AT_EPOCH":43063,"BSTAR":1.7697062e-5,"MEAN_MOTION_DOT":6.9e-7,"MEAN_MOTION_DDOT":0},{"OBJECT_NAME":"IRIDIUM 137","OBJECT_ID":"2017-083G","EPOCH":"2026-03-15T05:31:51.254976","MEAN_MOTION":14.34217541,"ECCENTRICITY":0.00023884,"INCLINATION":86.4027,"RA_OF_ASC_NODE":1.4214,"ARG_OF_PERICENTER":92.213,"MEAN_ANOMALY":267.9339,"EPHEMERIS_TYPE":0,"CLASSIFICATION_TYPE":"U","NORAD_CAT_ID":43076,"ELEMENT_SET_NO":999,"REV_AT_EPOCH":43070,"BSTAR":-8.851501e-6,"MEAN_MOTION_DOT":-5.0e-8,"MEAN_MOTION_DDOT":0},{"OBJECT_NAME":"IRIDIUM 141","OBJECT_ID":"2017-083H","EPOCH":"2026-03-15T05:22:43.162752","MEAN_MOTION":14.34218549,"ECCENTRICITY":0.00021312,"INCLINATION":86.4025,"RA_OF_ASC_NODE":1.26,"ARG_OF_PERICENTER":83.3166,"MEAN_ANOMALY":276.8272,"EPHEMERIS_TYPE":0,"CLASSIFICATION_TYPE":"U","NORAD_CAT_ID":43077,"ELEMENT_SET_NO":999,"REV_AT_EPOCH":43070,"BSTAR":3.5164908e-5,"MEAN_MOTION_DOT":1.18e-6,"MEAN_MOTION_DDOT":0},{"OBJECT_NAME":"IRIDIUM 153","OBJECT_ID":"2017-083J","EPOCH":"2026-03-15T05:54:19.198656","MEAN_MOTION":14.34216971,"ECCENTRICITY":0.00019757,"INCLINATION":86.4005,"RA_OF_ASC_NODE":329.7634,"ARG_OF_PERICENTER":77.9447,"MEAN_ANOMALY":282.1971,"EPHEMERIS_TYPE":0,"CLASSIFICATION_TYPE":"U","NORAD_CAT_ID":43078,"ELEMENT_SET_NO":999,"REV_AT_EPOCH":43181,"BSTAR":5.8934214e-5,"MEAN_MOTION_DOT":1.85e-6,"MEAN_MOTION_DDOT":0},{"OBJECT_NAME":"IRIDIUM 131","OBJECT_ID":"2017-083K","EPOCH":"2026-03-15T06:44:55.131360","MEAN_MOTION":14.34218379,"ECCENTRICITY":0.0002237,"INCLINATION":86.4031,"RA_OF_ASC_NODE":1.4159,"ARG_OF_PERICENTER":83.2314,"MEAN_ANOMALY":276.9136,"EPHEMERIS_TYPE":0,"CLASSIFICATION_TYPE":"U","NORAD_CAT_ID":43079,"ELEMENT_SET_NO":999,"REV_AT_EPOCH":43064,"BSTAR":2.568739e-5,"MEAN_MOTION_DOT":9.2e-7,"MEAN_MOTION_DDOT":0},{"OBJECT_NAME":"IRIDIUM 144","OBJECT_ID":"2018-030A","EPOCH":"2026-03-15T06:03:27.416160","MEAN_MOTION":14.34218007,"ECCENTRICITY":0.00020908,"INCLINATION":86.4003,"RA_OF_ASC_NODE":329.6922,"ARG_OF_PERICENTER":88.5872,"MEAN_ANOMALY":271.5564,"EPHEMERIS_TYPE":0,"CLASSIFICATION_TYPE":"U","NORAD_CAT_ID":43249,"ELEMENT_SET_NO":999,"REV_AT_EPOCH":41667,"BSTAR":9.27009e-6,"MEAN_MOTION_DOT":4.6e-7,"MEAN_MOTION_DDOT":0},{"OBJECT_NAME":"IRIDIUM 149","OBJECT_ID":"2018-030B","EPOCH":"2026-03-15T06:12:35.455680","MEAN_MOTION":14.34218241,"ECCENTRICITY":0.0002132,"INCLINATION":86.4002,"RA_OF_ASC_NODE":329.6577,"ARG_OF_PERICENTER":83.9421,"MEAN_ANOMALY":276.2018,"EPHEMERIS_TYPE":0,"CLASSIFICATION_TYPE":"U","NORAD_CAT_ID":43250,"ELEMENT_SET_NO":999,"REV_AT_EPOCH":41669,"BSTAR":8.4710066e-5,"MEAN_MOTION_DOT":2.57e-6,"MEAN_MOTION_DDOT":0},{"OBJECT_NAME":"IRIDIUM 157","OBJECT_ID":"2018-030C","EPOCH":"2026-03-15T04:59:31.406496","MEAN_MOTION":14.34217935,"ECCENTRICITY":0.00020987,"INCLINATION":86.4004,"RA_OF_ASC_NODE":329.7299,"ARG_OF_PERICENTER":84.467,"MEAN_ANOMALY":275.6766,"EPHEMERIS_TYPE":0,"CLASSIFICATION_TYPE":"U","NORAD_CAT_ID":43251,"ELEMENT_SET_NO":999,"REV_AT_EPOCH":41666,"BSTAR":2.3458704e-5,"MEAN_MOTION_DOT":8.5e-7,"MEAN_MOTION_DDOT":0},{"OBJECT_NAME":"IRIDIUM 140","OBJECT_ID":"2018-030D","EPOCH":"2026-03-15T05:26:55.385088","MEAN_MOTION":14.34217883,"ECCENTRICITY":0.00020034,"INCLINATION":86.3999,"RA_OF_ASC_NODE":329.7347,"ARG_OF_PERICENTER":86.4598,"MEAN_ANOMALY":273.6827,"EPHEMERIS_TYPE":0,"CLASSIFICATION_TYPE":"U","NORAD_CAT_ID":43252,"ELEMENT_SET_NO":999,"REV_AT_EPOCH":41672,"BSTAR":7.618425e-6,"MEAN_MOTION_DOT":4.1e-7,"MEAN_MOTION_DDOT":0},{"OBJECT_NAME":"IRIDIUM 145","OBJECT_ID":"2018-030E","EPOCH":"2026-03-15T05:08:39.045984","MEAN_MOTION":14.34216916,"ECCENTRICITY":0.00020894,"INCLINATION":86.4003,"RA_OF_ASC_NODE":329.7123,"ARG_OF_PERICENTER":95.1558,"MEAN_ANOMALY":264.9876,"EPHEMERIS_TYPE":0,"CLASSIFICATION_TYPE":"U","NORAD_CAT_ID":43253,"ELEMENT_SET_NO":999,"REV_AT_EPOCH":41665,"BSTAR":8.0482424e-5,"MEAN_MOTION_DOT":2.45e-6,"MEAN_MOTION_DDOT":0},{"OBJECT_NAME":"IRIDIUM 146","OBJECT_ID":"2018-030F","EPOCH":"2026-03-15T04:41:15.360288","MEAN_MOTION":14.34218265,"ECCENTRICITY":0.00021619,"INCLINATION":86.4004,"RA_OF_ASC_NODE":329.733,"ARG_OF_PERICENTER":89.2018,"MEAN_ANOMALY":270.9425,"EPHEMERIS_TYPE":0,"CLASSIFICATION_TYPE":"U","NORAD_CAT_ID":43254,"ELEMENT_SET_NO":999,"REV_AT_EPOCH":41666,"BSTAR":2.3535956e-5,"MEAN_MOTION_DOT":8.6e-7,"MEAN_MOTION_DDOT":0},{"OBJECT_NAME":"IRIDIUM 148","OBJECT_ID":"2018-030G","EPOCH":"2026-03-15T05:36:03.412512","MEAN_MOTION":14.34217693,"ECCENTRICITY":0.00020243,"INCLINATION":86.3997,"RA_OF_ASC_NODE":329.7584,"ARG_OF_PERICENTER":85.4808,"MEAN_ANOMALY":274.6619,"EPHEMERIS_TYPE":0,"CLASSIFICATION_TYPE":"U","NORAD_CAT_ID":43255,"ELEMENT_SET_NO":999,"REV_AT_EPOCH":41670,"BSTAR":1.281491e-6,"MEAN_MOTION_DOT":2.3e-7,"MEAN_MOTION_DDOT":0},{"OBJECT_NAME":"IRIDIUM 142","OBJECT_ID":"2018-030H","EPOCH":"2026-03-15T04:50:23.430912","MEAN_MOTION":14.34217897,"ECCENTRICITY":0.00021201,"INCLINATION":86.4001,"RA_OF_ASC_NODE":329.6645,"ARG_OF_PERICENTER":93.8953,"MEAN_ANOMALY":266.2485,"EPHEMERIS_TYPE":0,"CLASSIFICATION_TYPE":"U","NORAD_CAT_ID":43256,"ELEMENT_SET_NO":999,"REV_AT_EPOCH":41666,"BSTAR":2.2635584e-5,"MEAN_MOTION_DOT":8.3e-7,"MEAN_MOTION_DDOT":0},{"OBJECT_NAME":"IRIDIUM 150","OBJECT_ID":"2018-030J","EPOCH":"2026-03-15T05:45:11.325024","MEAN_MOTION":14.34217679,"ECCENTRICITY":0.0002049,"INCLINATION":86.4003,"RA_OF_ASC_NODE":329.7617,"ARG_OF_PERICENTER":86.1615,"MEAN_ANOMALY":273.9815,"EPHEMERIS_TYPE":0,"CLASSIFICATION_TYPE":"U","NORAD_CAT_ID":43257,"ELEMENT_SET_NO":999,"REV_AT_EPOCH":41669,"BSTAR":6.6081851e-5,"MEAN_MOTION_DOT":2.05e-6,"MEAN_MOTION_DDOT":0},{"OBJECT_NAME":"IRIDIUM 143","OBJECT_ID":"2018-030K","EPOCH":"2026-03-15T05:17:47.431104","MEAN_MOTION":14.34217615,"ECCENTRICITY":0.00019674,"INCLINATION":86.4002,"RA_OF_ASC_NODE":329.8582,"ARG_OF_PERICENTER":90.9405,"MEAN_ANOMALY":269.2016,"EPHEMERIS_TYPE":0,"CLASSIFICATION_TYPE":"U","NORAD_CAT_ID":43258,"ELEMENT_SET_NO":999,"REV_AT_EPOCH":41662,"BSTAR":-4.4809e-7,"MEAN_MOTION_DOT":1.9e-7,"MEAN_MOTION_DDOT":0},{"OBJECT_NAME":"IRIDIUM 161","OBJECT_ID":"2018-047C","EPOCH":"2026-03-15T05:25:02.570016","MEAN_MOTION":14.43277693,"ECCENTRICITY":0.0002452,"INCLINATION":86.449,"RA_OF_ASC_NODE":127.7698,"ARG_OF_PERICENTER":87.091,"MEAN_ANOMALY":273.0571,"EPHEMERIS_TYPE":0,"CLASSIFICATION_TYPE":"U","NORAD_CAT_ID":43478,"ELEMENT_SET_NO":999,"REV_AT_EPOCH":41158,"BSTAR":9.1326403e-5,"MEAN_MOTION_DOT":3.27e-6,"MEAN_MOTION_DDOT":0}]
